CSS (TIANHE)            
1 48274U 21035A   24140.03050157  .00060909  00000+0  60831-3 0  9992
2 48274  41.4679 261.1638 0002908   8.4296 351.6592 15.64702353174530
